OBJECT_NAME,OBJECT_ID,EPOCH,MEAN_MOTION,ECCENTRICITY,INCLINATION,RA_OF_ASC_NODE,ARG_OF_PERICENTER,MEAN_ANOMALY,EPHEMERIS_TYPE,CLASSIFICATION_TYPE,NORAD_CAT_ID,ELEMENT_SET_NO,REV_AT_EPOCH,BSTAR,MEAN_MOTION_DOT,MEAN_MOTION_DDOT
GALAXY 33 (G-33),2022-128A,2026-06-04T00:57:01.446912,1.00273072,.0002036,0.0130,25.3311,50.3491,58.0837,0,U,54026,999,1361,0,.91E-6,0
GALAXY 34 (G-34),2022-128B,2026-06-03T23:15:40.853376,1.00271953,.0001914,0.0230,345.7774,104.4131,22.1612,0,U,54027,999,1378,0,0,0
ANGOSAT 2,2022-131A,2026-06-03T13:42:55.162656,1.00272126,.0001675,0.0320,77.4861,43.8281,359.4453,0,U,54033,999,1334,0,.147E-5,0
EUTELSAT HOTBIRD 13F,2022-134A,2026-06-04T03:55:38.858016,1.00271117,.0001974,0.0486,291.0026,75.7406,317.7937,0,U,54048,999,1324,0,.99E-6,0
LDPE-2,2022-144A,2026-06-03T13:41:30.251328,1.00527594,.00016575,5.5803,63.7625,87.7974,135.7151,0,U,54219,999,1170,0,.13E-5,0
EUTELSAT HOTBIRD 13G,2022-146A,2026-06-03T17:44:50.773056,1.00270716,.00020812,0.0475,234.9384,300.0178,356.4552,0,U,54225,999,733,0,.99E-6,0
ZHONGXING-19,2022-148A,2026-06-04T04:04:16.433760,1.00270484,.0002394,0.0328,274.1063,183.4382,19.3374,0,U,54230,999,1325,0,-.7E-6,0
GALAXY 31 (G-31),2022-153A,2026-06-04T02:43:09.996096,1.00271997,.0001508,0.0123,30.0038,43.1326,99.2199,0,U,54243,999,700,0,.25E-6,0
GALAXY 32 (G-32),2022-153B,2026-06-03T20:00:59.416128,1.00270822,.00023838,0.0097,353.7552,46.7034,61.0732,0,U,54244,999,1301,0,-.162E-5,0
EUTELSAT 10B,2022-157A,2026-06-04T03:20:35.621952,1.00271035,.0002474,0.0632,102.8416,7.0340,202.8594,0,U,54259,999,1289,0,.8E-6,0
GALAXY 35 (G-35),2022-170A,2026-06-04T04:22:38.760384,1.00272420,.0002248,0.0158,34.4261,43.2199,147.5532,0,U,54741,999,1276,0,-.15E-5,0
GALAXY 36 (G-36),2022-170B,2026-06-03T20:01:44.344128,1.00272722,.00029038,0.0175,242.0719,197.6370,24.0211,0,U,54742,999,1264,0,-.173E-5,0
METEOSAT-12 (MTG-I1),2022-170C,2026-06-04T03:17:35.909088,1.00271385,.0003593,0.7238,20.7583,69.2688,211.5389,0,U,54743,999,1284,0,.3E-7,0
SHIJIAN-23 (SJ-23),2023-002A,2026-06-03T16:03:48.076416,1.00091075,.0003973,3.6827,78.4813,278.4105,293.1700,0,U,55131,999,1237,0,-.165E-5,0
APSTAR-6E,2023-005A,2026-06-03T19:22:40.588608,1.00269237,.0001095,0.0296,251.9045,264.1846,160.8472,0,U,55239,999,1855,0,-.306E-5,0
USA 342,2023-008A,2026-06-01T06:57:57.026304,1.00271715,.0000413,0.0058,148.1469,130.9082,99.0189,0,U,55263,999,1235,0,.151E-5,0
LDPE-3A,2023-008B,2026-06-04T03:01:41.048256,0.99148783,.0001228,2.3135,81.8231,40.1018,119.9662,0,U,55264,999,1168,0,-.185E-5,0
ELEKTRO-L 4,2023-016A,2026-06-03T20:07:39.772128,1.00272453,.0000675,0.0751,187.5376,354.5492,177.9176,0,U,55506,999,1220,0,-.46E-6,0
AMAZONAS NEXUS,2023-017A,2026-06-03T13:18:57.458880,1.00270762,.0005475,0.0390,34.3451,26.5008,329.9174,0,U,55508,999,690,0,-.271E-5,0
ZHONGXING-26,2023-023A,2026-06-04T00:28:07.194144,1.00270650,.0004198,0.0688,72.0966,8.9038,303.6332,0,U,55686,999,1209,0,-.342E-5,0
LUCH-5X (OLYMP-K 2),2023-031A,2026-06-03T17:26:15.433728,1.00270312,.000078,0.0239,54.9081,159.5695,1.2300,0,U,55841,999,1180,0,.45E-6,0
GAOFEN-13 02,2023-036A,2026-06-03T20:12:38.750688,1.00274617,.0004273,1.0189,359.4035,344.1157,0.1993,0,U,55912,999,1195,0,-.206E-5,0
SES-18,2023-038A,2026-06-04T05:31:13.703808,1.00272127,.0000503,0.0154,294.0866,74.6607,223.6487,0,U,55970,999,1197,0,-.89E-6,0
SES-19,2023-038B,2026-06-04T03:39:38.801952,1.00272786,.0001786,0.0108,3.9148,66.8606,101.8435,0,U,55971,999,1196,0,.99E-6,0
INTELSAT 40E (IS-40E),2023-052A,2026-06-03T21:43:43.910112,1.00270212,.0002158,0.0127,6.9927,108.4439,11.8557,0,U,56174,999,1169,0,0,0
VIASAT-3 F1,2023-060A,2026-06-03T20:01:44.344128,1.00269383,.0000869,0.0233,320.5678,109.2103,33.9643,0,U,56370,999,1130,0,0,0
ARCTURUS,2023-060B,2026-06-04T00:47:21.594048,1.00271521,.0002047,2.7427,80.1025,40.6875,216.0078,0,U,56371,999,1132,0,-.51E-6,0
GS-1,2023-060C,2026-06-02T17:29:49.430976,1.00278618,.00040182,2.6897,79.9972,279.1394,243.6560,0,U,56372,999,739,0,-.212E-5,0
BEIDOU-3 G4,2023-066A,2026-06-04T03:57:39.569184,1.00268888,.0004392,0.5024,328.1274,167.7112,316.2211,0,U,56564,999,1126,0,-.27E-5,0
ARABSAT-7B (BADR-8),2023-075A,2026-06-03T23:59:47.408928,1.00272852,.0004957,0.0770,28.4697,355.5113,254.4306,0,U,56757,999,1098,0,.157E-5,0
NVS-01 (IRNSS-1J),2023-076A,2026-06-04T00:29:22.072704,1.00272316,.0002875,2.1975,244.9470,44.2586,100.2095,0,U,56759,999,1098,0,-.323E-5,0
NUSANTARA TIGA (SATRIA),2023-086A,2026-06-03T17:43:20.980128,1.00269891,.00036398,0.0380,341.7960,3.8036,318.4303,0,U,57045,999,962,0,-.223E-5,0
