GALAXY 33 (G-33)        
1 54026U 22128A   26155.03960008  .00000091  00000+0  00000+0 0  9995
2 54026   0.0130  25.3311 0002036  50.3491  58.0837  1.00273072 13615
GALAXY 34 (G-34)        
1 54027U 22128B   26154.96922284  .00000000  00000+0  00000+0 0  9991
2 54027   0.0230 345.7774 0001914 104.4131  22.1612  1.00271953 13782
ANGOSAT 2               
1 54033U 22131A   26154.57147179  .00000147  00000+0  00000+0 0  9993
2 54033   0.0320  77.4861 0001675  43.8281 359.4453  1.00272126 13345
EUTELSAT HOTBIRD 13F    
1 54048U 22134A   26155.16364419  .00000099  00000+0  00000+0 0  9992
2 54048   0.0486 291.0026 0001974  75.7406 317.7937  1.00271117 13248
LDPE-2                  
1 54219U 22144A   26154.57048902  .00000130  00000+0  00000+0 0  9999
2 54219   5.5803  63.7625 0001657  87.7974 135.7151  1.00527594 11709
EUTELSAT HOTBIRD 13G    
1 54225U 22146A   26154.73947654  .00000099  00000+0  00000+0 0  9992
2 54225   0.0475 234.9384 0002081 300.0178 356.4552  1.00270716  7336
ZHONGXING-19            
1 54230U 22148A   26155.16963465 -.00000070  00000+0  00000+0 0  9996
2 54230   0.0328 274.1063 0002394 183.4382  19.3374  1.00270484 13253
GALAXY 31 (G-31)        
1 54243U 22153A   26155.11331014  .00000025  00000+0  00000+0 0  9999
2 54243   0.0123  30.0038 0001508  43.1326  99.2199  1.00271997  7005
GALAXY 32 (G-32)        
1 54244U 22153B   26154.83402102 -.00000162  00000+0  00000+0 0  9998
2 54244   0.0097 353.7552 0002383  46.7034  61.0732  1.00270822 13013
EUTELSAT 10B            
1 54259U 22157A   26155.13930118  .00000080  00000+0  00000+0 0  9993
2 54259   0.0632 102.8416 0002474   7.0340 202.8594  1.00271035 12890
GALAXY 35 (G-35)        
1 54741U 22170A   26155.18239306 -.00000150  00000+0  00000+0 0  9999
2 54741   0.0158  34.4261 0002248  43.2199 147.5532  1.00272420 12762
GALAXY 36 (G-36)        
1 54742U 22170B   26154.83454102 -.00000173  00000+0  00000+0 0  9999
2 54742   0.0175 242.0719 0002903 197.6370  24.0211  1.00272722 12645
METEOSAT-12 (MTG-I1)    
1 54743U 22170C   26155.13722117  .00000003  00000+0  00000+0 0  9999
2 54743   0.7238  20.7583 0003593  69.2688 211.5389  1.00271385 12840
SHIJIAN-23 (SJ-23)      
1 55131U 23002A   26154.66930644 -.00000165  00000+0  00000+0 0  9999
2 55131   3.6827  78.4813 0003973 278.4105 293.1700  1.00091075 12371
APSTAR-6E               
1 55239U 23005A   26154.80741422 -.00000306  00000+0  00000+0 0  9998
2 55239   0.0296 251.9045 0001095 264.1846 160.8472  1.00269237 18552
USA 342                 
1 55263U 23008A   26152.29024336  .00000151  00000+0  00000+0 0  9994
2 55263   0.0058 148.1469 0000413 130.9082  99.0189  1.00271715 12351
LDPE-3A                 
1 55264U 23008B   26155.12616954 -.00000185  00000+0  00000+0 0  9991
2 55264   2.3135  81.8231 0001228  40.1018 119.9662  0.99148783 11687
ELEKTRO-L 4             
1 55506U 23016A   26154.83865477 -.00000046  00000+0  00000+0 0  9998
2 55506   0.0751 187.5376 0000675 354.5492 177.9176  1.00272453 12200
AMAZONAS NEXUS          
1 55508U 23017A   26154.55483170 -.00000271  00000+0  00000+0 0  9996
2 55508   0.0390  34.3451 0005475  26.5008 329.9174  1.00270762  6904
ZHONGXING-26            
1 55686U 23023A   26155.01952771 -.00000342  00000+0  00000+0 0  9999
2 55686   0.0688  72.0966 0004198   8.9038 303.6332  1.00270650 12097
LUCH-5X (OLYMP-K 2)     
1 55841U 23031A   26154.72656752  .00000045  00000+0  00000+0 0  9997
2 55841   0.0239  54.9081 0000780 159.5695   1.2300  1.00270312 11803
GAOFEN-13 02            
1 55912U 23036A   26154.84211517 -.00000206  00000+0  00000+0 0  9990
2 55912   1.0189 359.4035 0004273 344.1157   0.1993  1.00274617 11959
SES-18                  
1 55970U 23038A   26155.23001972 -.00000089  00000+0  00000+0 0  9991
2 55970   0.0154 294.0866 0000503  74.6607 223.6487  1.00272127 11973
SES-19                  
1 55971U 23038B   26155.15253243  .00000099  00000+0  00000+0 0  9993
2 55971   0.0108   3.9148 0001786  66.8606 101.8435  1.00272786 11969
INTELSAT 40E (IS-40E)   
1 56174U 23052A   26154.90536933  .00000000  00000+0  00000+0 0  9999
2 56174   0.0127   6.9927 0002158 108.4439  11.8557  1.00270212 11692
VIASAT-3 F1             
1 56370U 23060A   26154.83454102  .00000000  00000+0  00000+0 0  9995
2 56370   0.0233 320.5678 0000869 109.2103  33.9643  1.00269383 11306
ARCTURUS                
1 56371U 23060B   26155.03288882 -.00000051  00000+0  00000+0 0  9996
2 56371   2.7427  80.1025 0002047  40.6875 216.0078  1.00271521 11325
GS-1                    
1 56372U 23060C   26153.72904434 -.00000212  00000+0  00000+0 0  9998
2 56372   2.6897  79.9972 0004018 279.1394 243.6560  1.00278618  7396
BEIDOU-3 G4             
1 56564U 23066A   26155.16504131 -.00000270  00000+0  00000+0 0  9991
2 56564   0.5024 328.1274 0004392 167.7112 316.2211  1.00268888 11266
ARABSAT-7B (BADR-8)     
1 56757U 23075A   26154.99985427  .00000157  00000+0  00000+0 0  9999
2 56757   0.0770  28.4697 0004957 355.5113 254.4306  1.00272852 10989
NVS-01 (IRNSS-1J)       
1 56759U 23076A   26155.02039436 -.00000323  00000+0  00000+0 0  9993
2 56759   2.1975 244.9470 0002875  44.2586 100.2095  1.00272316 10986
NUSANTARA TIGA (SATRIA) 
1 57045U 23086A   26154.73843727 -.00000223  00000+0  00000+0 0  9995
2 57045   0.0380 341.7960 0003639   3.8036 318.4303  1.00269891  9620
